NORAD_CAT_ID,OBJECT_NAME,OBJECT_TYPE,EPOCH,MEAN_MOTION,ECCENTRICITY,INCLINATION,RA_OF_ASC_NODE,ARG_OF_PERICENTER,MEAN_ANOMALY,BSTAR,MEAN_MOTION_DOT,MEAN_MOTION_DDOT,TLE_LINE0,TLE_LINE1,TLE_LINE2,SEMIMAJOR_AXIS,PERIOD,APOGEE,PERIGEE,DECAYED
53430.0,STARLINK-4538,PAYLOAD,2024-05-29 09:46:03,15.08843706,0.000165,53.2166,138.9052,84.9865,275.1316,9.7662e-05,1.267e-05,0.0,0 STARLINK-4538,1 53430U 22097AU  24150.40698409  .00001267  00000-0  97662-4 0  9997,2 53430  53.2166 138.9052 0001650  84.9865 275.1316 15.08843706100749,6917.869,95.437,540.876,538.593,0.0
53430.0,STARLINK-4538,PAYLOAD,2024-05-30 08:01:26,15.08854618,0.0001633,53.2166,134.7404,87.8578,272.2601,0.00021922,3.204e-05,0.0,0 STARLINK-4538,1 53430U 22097AU  24151.33433503  .00003204  00000-0  21922-3 0  9990,2 53430  53.2166 134.7404 0001633  87.8578 272.2601 15.08854618100422,6917.836,95.437,540.83,538.571,0.0
53430.0,STARLINK-4538,PAYLOAD,2024-05-31 04:41:27,15.08849743,0.0001711,53.2171,130.875,93.3923,266.7264,7.9258e-05,9.74e-06,0.0,0 STARLINK-4538,1 53430U 22097AU  24152.19545723  .00000974  00000-0  79258-4 0  9990,2 53430  53.2171 130.8750 0001711  93.3923 266.7264 15.08849743100552,6917.851,95.437,540.899,538.532,0.0
53430.0,STARLINK-4538,PAYLOAD,2024-05-31 06:16:50,15.0884979,0.000171,53.2171,130.5777,92.272,267.8468,7.4782e-05,9.03e-06,0.0,0 STARLINK-4538,1 53430U 22097AU  24152.26169677  .00000903  00000-0  74782-4 0  9997,2 53430  53.2171 130.5777 0001710  92.2720 267.8468 15.08849790101023,6917.85,95.437,540.898,538.533,0.0
53430.0,STARLINK-4538,PAYLOAD,2024-06-01 04:32:14,15.0884545,0.0001673,53.217,126.4136,91.4065,268.7119,-5.5037e-05,-1.164e-05,0.0,0 STARLINK-4538,1 53430U 22097AU  24153.18905711 -.00001164  00000-0 -55037-4 0  9990,2 53430  53.2170 126.4136 0001673  91.4065 268.7119 15.08845450100702,6917.864,95.437,540.886,538.571,0.0
53430.0,STARLINK-4538,PAYLOAD,2024-06-02 02:47:38,15.08829561,0.0001711,53.2185,122.2487,99.3109,260.8077,0.00017015,2.42e-05,0.0,0 STARLINK-4538,1 53430U 22097AU  24154.11642011  .00002420  00000-0  17015-3 0  9992,2 53430  53.2185 122.2487 0001711  99.3109 260.8077 15.08829561100846,6917.912,95.438,540.961,538.594,0.0
53430.0,STARLINK-4538,PAYLOAD,2024-06-03 04:13:48,15.08841393,0.0001676,53.2181,117.4945,94.2888,265.8296,6.915e-05,8.13e-06,0.0,0 STARLINK-4538,1 53430U 22097AU  24155.17625610  .00000813  00000-0  69150-4 0  9997,2 53430  53.2181 117.4945 0001676  94.2888 265.8296 15.08841393101009,6917.876,95.437,540.901,538.582,0.0
53430.0,STARLINK-4538,PAYLOAD,2024-06-03 07:24:34,15.08842833,0.0001692,53.2181,116.8992,94.3567,265.7619,7.7159e-05,9.4e-06,0.0,0 STARLINK-4538,1 53430U 22097AU  24155.30873483  .00000940  00000-0  77159-4 0  9994,2 53430  53.2181 116.8992 0001692  94.3567 265.7619 15.08842833101487,6917.872,95.437,540.907,538.566,0.0
53430.0,STARLINK-4538,PAYLOAD,2024-06-03 21:43:03,15.08839569,0.0001628,53.2176,114.2223,93.7564,266.3614,0.00011252,1.503e-05,0.0,0 STARLINK-4538,1 53430U 22097AU  24155.90489607  .00001503  00000-0  11252-3 0  9998,2 53430  53.2176 114.2223 0001628  93.7564 266.3614 15.08839569101573,6917.882,95.438,540.873,538.62,0.0
53430.0,STARLINK-4538,PAYLOAD,2024-06-04 07:15:21,15.08843394,0.0001532,53.2171,112.4376,92.0254,268.0913,0.00010702,1.416e-05,0.0,0 STARLINK-4538,1 53430U 22097AU  24156.30233430  .00001416  00000-0  10702-3 0  9996,2 53430  53.2171 112.4376 0001532  92.0254 268.0913 15.08843394101177,6917.87,95.437,540.795,538.675,0.0
53430.0,STARLINK-4538,PAYLOAD,2024-06-04 13:36:53,15.08852032,0.0001587,53.2179,111.249,93.5177,266.5997,0.00017784,2.544e-05,0.0,0 STARLINK-4538,1 53430U 22097AU  24156.56728678  .00002544  00000-0  17784-3 0  9997,2 53430  53.2179 111.2490 0001587  93.5177 266.5997 15.08852032101678,6917.844,95.437,540.806,538.611,0.0
53430.0,STARLINK-4538,PAYLOAD,2024-06-05 03:55:22,15.08837839,0.0001476,53.217,108.5728,87.1025,273.0136,4.844e-05,4.83e-06,0.0,0 STARLINK-4538,1 53430U 22097AU  24157.16345942  .00000483  00000-0  48440-4 0  9997,2 53430  53.2170 108.5728 0001476  87.1025 273.0136 15.08837839101306,6917.887,95.438,540.773,538.731,0.0
53430.0,STARLINK-4538,PAYLOAD,2024-06-05 13:27:40,15.08848624,0.0001618,53.2176,106.7891,92.1566,267.9611,0.0001259,1.717e-05,0.0,0 STARLINK-4538,1 53430U 22097AU  24157.56089074  .00001717  00000-0  12590-3 0  9999,2 53430  53.2176 106.7891 0001618  92.1566 267.9611 15.08848624101828,6917.854,95.437,540.838,538.6,0.0
53430.0,STARLINK-4538,PAYLOAD,2024-06-06 03:46:10,15.08833216,0.0001545,53.2181,104.1153,103.9104,256.206,1.5449e-05,-4.2e-07,0.0,0 STARLINK-4538,1 53430U 22097AU  24158.15706448 -.00000042  00000-0  15449-4 0  9994,2 53430  53.2181 104.1153 0001545 103.9104 256.2060 15.08833216101454,6917.901,95.438,540.835,538.697,0.0
53430.0,STARLINK-4538,PAYLOAD,2024-06-06 13:18:28,15.08850573,0.0001557,53.2192,102.3296,92.9534,267.1636,0.00010284,1.35e-05,0.0,0 STARLINK-4538,1 53430U 22097AU  24158.55449253  .00001350  00000-0  10284-3 0  9999,2 53430  53.2192 102.3296 0001557  92.9534 267.1636 15.08850573101513,6917.848,95.437,540.79,538.636,0.0
53430.0,STARLINK-4538,PAYLOAD,2024-06-07 13:09:15,15.08853591,0.0001766,53.218,97.867,81.8115,278.3078,0.00013953,1.934e-05,0.0,0 STARLINK-4538,1 53430U 22097AU  24159.54809136  .00001934  00000-0  13953-3 0  9993,2 53430  53.2180  97.8670 0001766  81.8115 278.3078 15.08853591101661,6917.839,95.437,540.926,538.482,0.0
53430.0,STARLINK-4538,PAYLOAD,2024-06-08 05:03:06,15.08851308,0.0001384,53.2178,94.8923,89.0825,271.0326,0.00021042,3.063e-05,0.0,0 STARLINK-4538,1 53430U 22097AU  24160.21049315  .00003063  00000-0  21042-3 0  9997,2 53430  53.2178  94.8923 0001384  89.0825 271.0326 15.08851308101761,6917.846,95.437,540.668,538.753,0.0
53430.0,STARLINK-4538,PAYLOAD,2024-06-08 13:00:02,15.08852875,0.000148,53.2187,93.4079,88.8542,271.262,0.00018108,2.596e-05,0.0,0 STARLINK-4538,1 53430U 22097AU  24160.54169168  .00002596  00000-0  18108-3 0  9991,2 53430  53.2187  93.4079 0001480  88.8542 271.2620 15.08852875102274,6917.841,95.437,540.73,538.682,0.0
53430.0,STARLINK-4538,PAYLOAD,2024-06-09 01:43:08,15.0882796,0.0001813,53.2167,91.0265,102.2104,257.9091,-6.8286e-05,-1.374e-05,0.0,0 STARLINK-4538,1 53430U 22097AU  24161.07162727 -.00001374  00000-0 -68286-4 0  9992,2 53430  53.2167  91.0265 0001813 102.2104 257.9091 15.08827960101895,6917.917,95.438,541.036,538.528,0.0
53430.0,STARLINK-4538,PAYLOAD,2024-06-09 22:23:09,15.08833378,0.0001527,53.2175,87.1607,109.8502,250.2655,7.3208e-05,8.77e-06,0.0,0 STARLINK-4538,1 53430U 22097AU  24161.93274910  .00000877  00000-0  73208-4 0  9990,2 53430  53.2175  87.1607 0001527 109.8502 250.2655 15.08833378102485,6917.901,95.438,540.822,538.709,0.0
53430.0,STARLINK-4538,PAYLOAD,2024-06-10 04:44:42,15.08823666,0.0001191,53.2164,85.9744,94.4773,265.6355,-0.00010302,-1.926e-05,0.0,0 STARLINK-4538,1 53430U 22097AU  24162.19771770 -.00001926  00000-0 -10302-3 0  9998,2 53430  53.2164  85.9744 0001191  94.4773 265.6355 15.08823666102067,6917.93,95.439,540.619,538.971,0.0
53430.0,STARLINK-4538,PAYLOAD,2024-06-10 22:13:57,15.08827841,0.0001193,53.2187,82.7058,102.0496,258.063,0.00023955,3.525e-05,0.0,0 STARLINK-4538,1 53430U 22097AU  24162.92635539  .00003525  00000-0  23955-3 0  9994,2 53430  53.2187  82.7058 0001193 102.0496 258.0630 15.08827841102639,6917.918,95.438,540.608,538.957,0.0
53430.0,STARLINK-4538,PAYLOAD,2024-06-11 04:35:29,15.08849862,0.0001373,53.2173,81.5124,111.5741,248.5398,0.0004392,6.711e-05,0.0,0 STARLINK-4538,1 53430U 22097AU  24163.19130914  .00006711  00000-0  43920-3 0  9995,2 53430  53.2173  81.5124 0001373 111.5741 248.5398 15.08849862102219,6917.85,95.437,540.665,538.765,0.0
53430.0,STARLINK-4538,PAYLOAD,2024-06-12 01:15:29,15.08846862,0.0001422,53.2179,77.6508,112.1845,247.9298,0.00035958,5.44e-05,0.0,0 STARLINK-4538,1 53430U 22097AU  24164.05242865  .00005440  00000-0  35958-3 0  9990,2 53430  53.2179  77.6508 0001422 112.1845 247.9298 15.08846862102347,6917.859,95.437,540.708,538.741,0.0
53430.0,STARLINK-4538,PAYLOAD,2024-06-12 10:47:47,15.08858245,0.0001276,53.2178,75.8624,103.0036,257.1099,0.00038293,5.815e-05,0.0,0 STARLINK-4538,1 53430U 22097AU  24164.44985920  .00005815  00000-0  38293-3 0  9990,2 53430  53.2178  75.8624 0001276 103.0036 257.1099 15.08858245102400,6917.825,95.436,540.572,538.807,0.0
53430.0,STARLINK-4538,PAYLOAD,2024-06-12 21:55:30,15.08831258,0.0001288,53.2173,73.7795,83.0163,277.0976,-0.00033309,-5.584e-05,0.0,0 STARLINK-4538,1 53430U 22097AU  24164.91355111 -.00005584  00000-0 -33309-3 0  9993,2 53430  53.2173  73.7795 0001288  83.0163 277.0976 15.08831258102930,6917.907,95.438,540.663,538.881,0.0
53430.0,STARLINK-4538,PAYLOAD,2024-06-13 02:41:40,15.08838552,0.0001444,53.2192,72.8886,96.501,263.6147,-0.00010129,-1.9e-05,0.0,0 STARLINK-4538,1 53430U 22097AU  24165.11227573 -.00001900  00000-0 -10129-3 0  9999,2 53430  53.2192  72.8886 0001444  96.5010 263.6147 15.08838552102504,6917.885,95.438,540.749,538.751,0.0
53430.0,STARLINK-4538,PAYLOAD,2024-06-13 10:38:35,15.0884527,0.0001471,53.2195,71.4026,100.0188,260.0971,-1.9859e-05,-6.04e-06,0.0,0 STARLINK-4538,1 53430U 22097AU  24165.44346865 -.00000604  00000-0 -19859-4 0  9991,2 53430  53.2195  71.4026 0001471 100.0188 260.0971 15.08845270102551,6917.864,95.437,540.747,538.712,0.0
53430.0,STARLINK-4538,PAYLOAD,2024-06-13 21:46:18,15.08836641,0.0001659,53.2199,69.3282,115.6135,244.5029,8.775e-06,-1.48e-06,0.0,0 STARLINK-4538,1 53430U 22097AU  24165.90715356 -.00000148  00000-0  87750-5 0  9995,2 53430  53.2199  69.3282 0001659 115.6135 244.5029 15.08836641103089,6917.891,95.438,540.903,538.608,0.0
53430.0,STARLINK-4538,PAYLOAD,2024-06-14 10:29:22,15.08852709,0.0001561,53.2183,66.9412,86.3934,273.7237,5.7145e-05,6.22e-06,0.0,0 STARLINK-4538,1 53430U 22097AU  24166.43706279  .00000622  00000-0  57145-4 0  9998,2 53430  53.2183  66.9412 0001561  86.3934 273.7237 15.08852709103160,6917.842,95.437,540.786,538.627,0.0
